id,name,kana,area,category,lat,lng,zoom,url,image,description,電話番号,住所,アクセス,営業時間,定休日,料金,決済方法,駐車場,駐車場：大型バスの駐車,ウェブサイト,駐車場：台数,関連資料,駐車場：備考,備考,オンライン予約,メールアドレス
1193,福井県立恐竜博物館,ふくいけんきょうりゅうはくぶつかん,"永平寺・奥越,勝山市","恐竜,歴史・文化・史跡,博物館・美術館・資料館",36.0836435,136.5066581,16,https://www.fuku-e.com/spot/detail_1193.html,https://www.fuku-e.com/lsc/upfile/spot/0000/1193/1193_10_l.jpg,画像提供：＜福井県立恐竜博物館提供＞恐竜化石の宝庫として全国的にその名が知られている福井県勝山市にある、世界有数の規模の博物館です。広大な無柱空間には、所狭しと恐竜骨格や化石・標本、ジオラマ、復元模型などが展示されており、大迫力の恐竜を間…,福井県立恐竜博物館 0779-88-0001,福井県勝山市村岡町寺尾51-11,えちぜん鉄道勝山駅からコミュニティバスにて約15分またはタクシーにて約10分/中部縦貫自動車道勝山ICから車で約10分,"9～17時(入館は16時30分まで)
※GWおよび夏休み期間は8時30分～18時(入館は17時30分まで)",第2、第4水曜日(祝日の時は翌日が休館、夏休み期間は無休)および年末年始(12月31日、1月1日) ただし、展示替えや施設点検のための臨時休館日有(詳細はＨＰまたは電話にてご確認ください),"一般　１，０００円
一般（団体）８００円
一般（年間パスポート）３，０００円

高校生・大学生　８００円
高校生・大学生（団体）６４０円
高校生・大学生（年間パスポート）２，４００円

小学生・中学生　５００円
小学生・中学生（団体）４００円
小学生・中学生（年間パスポート）１，５００円

７０歳以上　５００円
７０歳以上（団体）４００円
７０歳以上（年間パスポート）１，５００円
※小学校就学前の始期に達するまでの者については無料
※常設展３０人以上の場合に団体料金を適用
※化石研究展示は定員数が少ないため団体料金の設定なし",,あり,,"http://www.dinosaur.pref.fukui.jp/,https://www.fuku-e.com/feature/kyouryu,https://www.dinosaur.pref.fukui.jp/guide/access.html",1500,,,リニューアル改修工事に伴い、2022年12月～2023年夏のリニューアルオープンまで臨時休館しています。,https://www.dinosaur.pref.fukui.jp/guide/ticket.html,
1594,かつやまディノパーク,かつやまでぃのぱーく,"永平寺・奥越,勝山市",恐竜,36.08459163981743,136.50492377536318,17,https://www.fuku-e.com/spot/detail_1594.html,https://www.fuku-e.com/lsc/upfile/spot/0000/1594/1594_2_l.jpg,平成27年にかつやま恐竜の森にオープンした新たなアミューズメント施設「かつやまディノパーク」。総面積は1.7ヘクタール、全長約460ｍのウォークスルーで味わえる冒険アトラクションになっていて、実物大で動き、鳴き声を上げる恐竜ロボット合計44頭が訪れ…,かつやまディノパーク　0779-88-8777,福井県勝山市村岡町寺尾51-11,"・JR福井駅下車→えちぜん鉄道 勝山永平寺線「勝山行き」乗車(約1時間)→勝山駅下車→コミュニティバスにて約15分、またはタクシーにて約10分
・JR福井駅にてJR越美北線「越前大野」または「九頭竜湖」行きに乗りかえ→越前大野駅下車→タクシーにて約20分
・北陸自動車道 福井北JCT・IC→中部縦貫自動車道 勝山IC→一般道路 … 約15分
・東海北陸自動車道 白鳥ICから中部縦貫自動車道→国道158号→国道157号経由 … 約90分","9:00〜17:00(最終入場16:30)
※季節や天候により営業時間が変更になる場合がございます。",第2・第4 水曜日 ※夏休み期間は無休　冬期間(11月下旬から3月末まで),"恐竜の棲む森＋恐竜迷路
〈個人 大人〉1000円（中学生以上）
〈個人 小人〉800円　(3歳から小学生まで)
〈団体 大人〉900円 （中学生以上）※30名以上
〈団体 小人〉700円　(3歳から小学生まで) ※30名以上

恐竜の棲む森+恐竜迷路+巨大昆虫冒険ツアー（セット券）
〈個人 大人〉1600円（中学生以上）
〈個人 小人〉1400円　(3歳から小学生まで)
〈団体 大人〉1500円 （中学生以上）※30名以上
〈団体 小人〉1300円　(3歳から小学生まで) ※30名以上",現金,あり,,http://www.dinopark.jp/index.html,960台,,,"【営業日】
4月上旬～11月下旬(ただし雪の状況による)",,
1621,大野市化石発掘体験センター「ＨＯＲＯＳＳＡ！」,おおのしかせきはっくつたいけんせんたーほろっさ,"永平寺・奥越,大野市",歴史・文化・史跡,35.8987654,136.6536383,14,https://www.fuku-e.com/spot/detail_1621.html,https://www.fuku-e.com/lsc/upfile/spot/0000/1621/1621_1_l.jpg,ＨＯＲＯＳＳＡ！(ホロッサ)では、恐竜の歯やアンモナイト、植物、貝化石の発掘を体験できます。ＨＯＲＯＳＳＡ！では、約4億4000万年前の古生代から約1億3000万年前の中生代白亜紀前期までの約3億年に渡る地球の歴史を体験することができます。,0779-78-2070,福井県大野市角野14-3 九頭竜国民休養地,"JR九頭竜湖駅から徒歩10分/北陸自動車道福井ICから車で70分/
東海北陸道白鳥JCTから車で25分(中部縦貫道油坂峠道路経由)","9:00～16:30　
体験時間(事前予約制、定員に満たない場合は当日申し込み可)
　○土・日・祝日の場合　
　　午前の部　①　9:30～10:30　　　②11:00～12:00
　　午後の部　③13:30～14:30　　　④15:00～16:00
　
　○平日の場合
　　午前の部　10:30～11:30　午後の部　13:30～14:30　
",月曜日及び祝日の翌日,"中学生以下510円、高校生820円、一般1，020円、
同伴人(軍手・ゴーグルのみ貸出し)310円
※10名以上の団体は、中学生以下100円割引、高校生・一般200円割引
",,,,https://horossa.jp/,,,,"体験対象は4歳以上、小学生3年生以下は保護者同伴が必須、
体験に必要なハンマー・ゴーグル・軍手はセンターで用意",,mailto:horossa@mars.vipa.ne.jp
1648,道の駅　恐竜渓谷かつやま,みちのえききょうりゅうけいこくかつやま,"永平寺・奥越,勝山市","恐竜,道の駅・観光案内所等,道の駅,観光案内所,お土産店・商業施設",36.072004,136.478772,17,https://www.fuku-e.com/spot/detail_1648.html,https://www.fuku-e.com/lsc/upfile/spot/0000/1648/1648_1_l.jpg,令和2年6月20日オープン！■カフェレストラン　黒糖とこし餡をオリジナル配合してスッキリとした甘味に仕上げた「水ようかんソフトクリーム」、若狭牛で作るメンチカツを挟む「ラプトルバーガー」は、リッチな食感と香り、あふれる肉汁が自慢です！■ショップ…,"道の駅　恐竜渓谷かつやま
TEL  0779-89-2234　FAX 0779-89-2235
",福井県勝山市荒土町松ヶ崎1-17,中部縦貫自動車道勝山IC下車後、市内方面へ車で約1分,"ショップ/9:00～17:00(時期によって変動あり)
レストラン/11:00～15:00(時期によって変動あり)",第２・第３火曜日,,,あり,11,"http://katsuyama-navi.jp/michieki/,https://www.fuku-e.com/fukutabi/detail_65.html",88,,,,,
1669,福井駅西口広場（恐竜広場）,ふくいえきにしぐちひろば　きょうりゅうひろば,"あわら・坂井・福井市,福井市",恐竜,36.062444,136.223267,18,https://www.fuku-e.com/spot/detail_1669.html,https://www.fuku-e.com/lsc/upfile/spot/0000/1669/1669_3_l.jpg,JR福井駅の西口側の「恐竜広場」では、壁面から飛び出してくるように見える横約7.3m×縦約4.6m恐竜トリックアート、壁面にある横約45m×縦約10mの巨大な恐竜イラスト、福井で生息していたフクイラプトル、フクイサウルス、フクイティタン…,0776-20-5180（福井市新幹線整備課）,福井県福井市中央1丁目,JR福井駅、えちぜん鉄道 福井駅、福井鉄道 福井駅から徒歩すぐ,,,,,,,https://www.pref.fukui.lg.jp/doc/brandeigyou/plaza.html,,,,,,
2015,スキージャム勝山 (4月下旬～10月下旬),すきーじゃむかつやま,"永平寺・奥越,勝山市",山・川・湖,36.072967,136.555549,16,https://www.fuku-e.com/spot/detail_2015.html,https://www.fuku-e.com/lsc/upfile/spot/0000/2015/2015_1_l.jpg,大自然に囲まれた高原リゾートでバーベキューやセグウェイ体験、パークゴルフ、ものづくり体験など豊富なメニューを楽しめます。温泉、ホテルも併設しており、近隣には車で10分の福井県恐竜博物館とじっくり遊びつくすことができます。2022年グリーンシーズ…,0779-87-6109（スキージャム勝山     　）,福井県勝山市170-70,中部縦貫自動車道勝山ICから法恩寺山有料道路経由で車で20分,"夏季アクティビティーメニュー10:00~16:00 
バーベキューガーデン 11:00~17:00(予約制)","4月下旬～10月下旬は毎週水曜日定休
10月下旬～12月中旬はスキー場準備のため休館","入場料：無料
体験料
①セグウェイ　5,500円/55分/1名
②わんぱく恐竜ランド　500円/1日/1名　※3歳以下無料
③芝そり　500円/1時間/1台
④サイクリング　1,000円/1時間/1台
⑤ものづくり体験　1作品 1,500円～
⑥パークゴルフ　大人1,000円/1人/18ホール　子供600円/1人/18ホール
⑦ドッグラン　500円/1日/1頭
⑧温水プール　大人850円　子供550円　レンタル水着 大人 800円　レンタル水着 子供 500円　スイミングキャップ 200円
⑨パラグライダー　「ふわっと体験」5,500円　「タンデムフライト」13,200円（保険料別）
⑩バーベキュー　1人前3,600円～
⑫グラマラスBBQ　「サイト使用料　7,000円～　「バーベキュープラン」5,000円～
⑬バギー　体験料金　4,500円（中学生以上）同乗料金　1,500円　※WEB予約限定で特典つき！
⑭ディスクゴルフ
　●ラウンド　9ホール…1,000円/1名　　18ホール…1,800円/1名　　1日回り放題…2,000円/1名
　●レンタル　ディスク1枚…500円　　セットレンタル（ミニバッグ、ディスク3枚）…1,500円
　●スクール　ラウンドレッスン…3,000円/1名（9ホールラウンド料込、レンタル別）
⑮カヤック　2人乗り　1艇　2,500円　1人乗り　1艇　1,500円",,あり,,"http://www.skijam.jp/,https://www.jamsports.jp/,https://www.skijam.jp/green/lp/bbq/",3400,,,,"https://www.jalan.net/kankou/spt_18206ca3470058112/activity_plan/,https://skijam.resv.jp/reserve/calendar.php?x=1650588081,https://rado-op.jp/detail/18/null",
2018,どきどき恐竜発掘ランド,どきどききょうりゅうはっくつらんど,"永平寺・奥越,勝山市",恐竜,36.083073,136.509382,16,https://www.fuku-e.com/spot/detail_2018.html,https://www.fuku-e.com/lsc/upfile/spot/0000/2018/2018_4_l.jpg,勝山は日本を代表する恐竜化石発掘のまち。発掘現場から運ばれた岩で道具を使って発掘体験！貝や植物の化石はもちろん、運がよければ、まさしく恐竜の化石を探し当てることができます。どんな化石が出てくるかな。ワクワクドキドキ。毎日行っていますので親…,0779-88-8777（公園管理事務所）,福井県勝山市村岡町寺尾51-11,"・JR福井駅下車→えちぜん鉄道 勝山永平寺線「勝山行き」乗車(約1時間)→勝山駅下車→コミュニティバスにて約15分、またはタクシーにて約10分
・JR福井駅にてJR越美北線「越前大野」または「九頭竜湖」行きに乗りかえ→越前大野駅下車→タクシーにて約20分
・北陸自動車道 福井北JCT・IC→中部縦貫自動車道 勝山IC→一般道路 … 約15分
・東海北陸自動車道 白鳥ICから中部縦貫自動車道→国道158号→国道157号経由 … 約90分","3月下旬~11月中旬

★開催時間
1回目 9:30~
2回目 11:00~
3回目 13:30~
4回目 15:00~
(季節によって1日に行われる発掘体験の回数が変わります)
*予約制（当日空きがあれば参加可能）
詳しくはホームページでご確認ください",恐竜博物館休館日(第2，4水曜日)、体験会場整備日,入場料：かつやま恐竜の森公園へは無料 / 体験料金：4歳～中学生　530円(430円)、高校生 850円(630円)、大人　1050円(850円) ※(　)内は10名以上の団体料金,現金　クレジットカード　電子マネー,あり,,http://www.kyoryunomori.net/,990台(公園駐車場）,,,,,
2086,野外恐竜博物館　,やがいきょうりゅうはくぶつかん,"永平寺・奥越,勝山市","公共交通機関で行ける,ガイドあり",36.0824388,136.5068117,16,https://www.fuku-e.com/spot/detail_2086.html,https://www.fuku-e.com/lsc/upfile/spot/0000/2086/2086_2_l.jpg,野外恐竜博物館は、日本最大の恐竜化石発掘現場である勝山市北谷町に2014年7月にオープンしました。野外恐竜博物館は、「観察広場」「展示場」「化石発掘体験広場」の3つのゾーンにわかれています。観察広場では、恐竜化石を発掘している現場を間近に見学で…,0779-88-0001（福井県立恐竜博物館）,福井県勝山市村岡町寺尾51-11,すべて恐竜博物館前から専用バスによるツアー形式で行います。,"4月下旬から11月上旬 

※天候やその他の影響によりツアーが中止になる場合がありますので､あらかじめご了承ください｡",休館日は、恐竜博物館本館に準じます。 ※4月、5月、6月、9月、10月の第2・4水曜日および7月の第2水曜日,"個人:大人/1,300円　高校・大学生/1,100円　小・中学生/650円　70歳以上/650円
団体:大人/1,040円　高校・大学生/880円　 小・中学生/520円　70歳以上/520円
※未就学児は無料です。",,,,http://www.dinosaur.pref.fukui.jp/visit/fieldstation,,,,"■お持ちいただきたいもの
・軍手または手袋
・マスク
・飲み物(現地では自動販売機や冷水機等はありません)
・雨具(雨天でも実施することがあります)
・虫よけスプレー等(特に夏場、必要に応じて)
■服装について
・汚れてもよい、動きやすい服装(長袖、長ズボンが望ましい)
・上着(春や秋の場合の寒さ対策として)
■靴について
・運動靴(動きやすさや、ケガ防止のため)
◎発掘体験で使用するハンマー、タガネ、ゴーグルは野外恐竜博物館で準備します。",,
4569,泰澄の杜,たいちょうのもり,"丹南,越前町",温泉,35.9975127,136.0935598,16,https://www.fuku-e.com/spot/detail_4569.html,https://www.fuku-e.com/lsc/upfile/spot/0000/4569/4569_1_l.jpg,自然とのふれあいの里「泰澄の杜」は、素晴らしい自然に囲まれた温泉宿泊施設です。春夏秋冬四季折々の自然とふれあえる環境のなかで、泰澄の杜の自慢の温泉に入って日頃の疲れを癒して下さい。テラス付客室、テラス付き恐竜ルーム(1室限定)を新設しました。…,0778-34-2322,福井県越前町小倉88-55-1,JR福井駅から京福バス織田行泰澄の杜下車,"≪日帰り温泉≫
8:00～22:00（最終受付21:00）","毎週火曜日（祝日の場合は営業）
※8月9日、8月16日は営業","≪日帰り温泉≫
大人 520円
小学生 310円
毎週金曜レディースデ― （女性）310円",,あり,,http://taichou-no-mori.jp/,,,,,https://fuku-e.tabi-kura.com/dom/h/h115393.html?cp=2,mailto:front@taichou-no-mori.jp
4708,旅館　明石,りょかんあかし,"丹南,越前町",温泉,35.9241579,135.9982323,15,https://www.fuku-e.com/spot/detail_4708.html,https://www.fuku-e.com/lsc/upfile/spot/0000/4708/4708_4_l.jpg,福井県観光の公式サイト。恐竜や福井ゆかりの幕末偉人から温泉・宿泊情報、おろしそば、ソースカツ丼、越前ガニなどのグルメ情報も掲載。桜、海水浴、花火、紅葉、スキー・スノボなど季節・イベント情報も満載！福井の旅に役立つ情報をたっぷりお届けします！,0778-37-0880,福井県越前町厨71-280-1,,,,"4月～10月　8,800円～
11月～3月　33,000円～",,あり,,http://www.mjnet.ne.jp/akashi/,,,,,https://fuku-e.tabi-kura.com/dom/h/h007607.html?cp=2,
4817,三六温泉　神明苑,さんろくおんせん　しんめいえん,"丹南,鯖江市",温泉,35.9723214,136.1831091,14,https://www.fuku-e.com/spot/detail_4817.html,https://www.fuku-e.com/common/images/ogImg.png,福井県観光の公式サイト。恐竜や福井ゆかりの幕末偉人から温泉・宿泊情報、おろしそば、ソースカツ丼、越前ガニなどのグルメ情報も掲載。桜、海水浴、花火、紅葉、スキー・スノボなど季節・イベント情報も満載！福井の旅に役立つ情報をたっぷりお届けします！,0778-52-5165,福井県鯖江市神明町2-8-4,福井鉄道神明駅より徒歩約2分/北陸自動車道鯖江ICより車で約8分,,年中無休,,,あり,,https://shinmeien.net/,75,,,,,
4849,レンタサイクル-勝山市-えちぜん鉄道勝山駅,れんたさいくる-かつやまし-えちぜんてつどうかつやまえき,"永平寺・奥越,勝山市",レンタサイクル,36.05627342015287,136.4921531192943,16,https://www.fuku-e.com/spot/detail_4849.html,https://www.fuku-e.com/common/images/ogImg.png,福井県観光の公式サイト。恐竜や福井ゆかりの幕末偉人から温泉・宿泊情報、おろしそば、ソースカツ丼、越前ガニなどのグルメ情報も掲載。桜、海水浴、花火、紅葉、スキー・スノボなど季節・イベント情報も満載！福井の旅に役立つ情報をたっぷりお届けします！,0120-840-508（えちぜん鉄道）,福井県勝山市遅羽町比島,,5:40～24:00,,"普通　1回100円
電動アシスト　1回500円
(えちぜん鉄道利用者に限る)",,,,,,,,"普通7台
電動アシスト5台",,
4850,レンタサイクル-鯖江市-鯖江市観光案内所(JR鯖江駅内),れんたさいくる-さばえし-さばえしかんこうあんないじょ(じぇいあーるさばええきない),"丹南,鯖江市",レンタサイクル,35.943297,136.188702,17,https://www.fuku-e.com/spot/detail_4850.html,https://www.fuku-e.com/common/images/ogImg.png,福井県観光の公式サイト。恐竜や福井ゆかりの幕末偉人から温泉・宿泊情報、おろしそば、ソースカツ丼、越前ガニなどのグルメ情報も掲載。桜、海水浴、花火、紅葉、スキー・スノボなど季節・イベント情報も満載！福井の旅に役立つ情報をたっぷりお届けします！,0778-51-2229（鯖江市観光案内所）,福井県鯖江市,,"10:00～16:00
年始年末休業
冬期間（12月〜2月）は貸出中止",,"4時間まで200円
4時間～1日まで500円",,,,https://www.city.sabae.fukui.jp/kurashi_tetsuduki/kokyokotsu/rentasaikuru/rentasaikuru01.html,,,,5台,,
4893,グランディア芳泉(恐竜ホテル),ぐらんでぃあほうせん(きょうりゅうほてる),"あわら・坂井・福井市,あわら市",温泉,36.222166,136.1878857,15,https://www.fuku-e.com/spot/detail_4893.html,https://www.fuku-e.com/lsc/upfile/spot/0000/4893/4893_1_l.jpg,折々に美しい表情を見せる日本庭園、坂井平野を見渡せる展望大浴場、旅情を感じる温泉たまご手作り体験や足湯。趣の異なる露天風呂を設えた離れや別邸、多彩な施設でおもてなし。あわらの湯を楽しめる宿。『温泉』当館の温泉大浴場は、2017年の夏に「天上のS…,0776-77-2555,福井県あわら市舟津43-26,JR北陸本線「芦原温泉駅」より車で約15分（当館シャトルバスを定時運行しております）北陸自動車道「金津IC」より約15分,,,"1泊2食付　大人お1人様22,00円より（サービス料込・消費税込・入湯税別）",VISA、Master、JCB、AMERICANEXPRESS、Dinners Club、DC、UFJ、NICOS、SAISON、UnionPay,あり,,"https://www.g-housen.co.jp/,https://www.g-housen.co.jp/room/sakuratei/356/",300(屋外/無料),,,"チェックイン　15時00分～19時00分チェックアウト　～10時00分（個止吹気亭のみ11時00分）シャトルバス（お迎え）15時00分発、15時30分発、16時00分発、16時30分発シャトルバス（お送り）8時30分発、9時00分発、9時30分発、10時00分発、10時30分発、11時00分発※シャトルバスは事前予約制です。
温泉：アルカリ性単純泉、ナトリウム塩化物泉",,
4898,勝山天然温泉　水芭蕉,かつやまてんねんおんせん　みずばしょう,"永平寺・奥越,勝山市",温泉,36.074601471380284,136.5145919748993,15,https://www.fuku-e.com/spot/detail_4898.html,https://www.fuku-e.com/lsc/upfile/spot/0000/4898/4898_1_l.jpg,福井県観光の公式サイト。恐竜や福井ゆかりの幕末偉人から温泉・宿泊情報、おろしそば、ソースカツ丼、越前ガニなどのグルメ情報も掲載。桜、海水浴、花火、紅葉、スキー・スノボなど季節・イベント情報も満載！福井の旅に役立つ情報をたっぷりお届けします！,0779-87-1507　　FAX　0779-87-1507,福井県勝山市村岡町浄土寺30－11,"お車の場合：北陸自動車道　福井北ICより中部縦貫道経由（約20分）で勝山ICからお車で約10分
電車の場合：えちぜん鉄道（勝山駅）よりコミュニティバス「ぐるりん中部方面行き」にて約20分（100円）",10時～22時（最終受付21時30分）,"第3水曜日
（8月・12月～3月は休まず営業）","大人620円　子供310円　ポイント会員570円
65歳以上（勝山市民）470円　身障者410円",現金・クレジットカード・電子マネー,あり,３台,https://mizubasyo.jp/,１２０台,,,,https://mizubasyou.rwiths.net/r-withs/tfi0010a.do,
4922,福井市木ごころ文化ホール,ふくいしきごころぶんかほーる,"あわら・坂井・福井市,福井市","公共交通機関で行ける,駅から徒歩10分以内,雨でもOK(屋根つき)",36.0000079,136.3592439,14,https://www.fuku-e.com/spot/detail_4922.html,https://www.fuku-e.com/lsc/upfile/spot/0000/4922/4922_1_l.jpg,福井県観光の公式サイト。恐竜や福井ゆかりの幕末偉人から温泉・宿泊情報、おろしそば、ソースカツ丼、越前ガニなどのグルメ情報も掲載。桜、海水浴、花火、紅葉、スキー・スノボなど季節・イベント情報も満載！福井の旅に役立つ情報をたっぷりお届けします！,（0776）-20-5361,福井県福井市大手3丁目10-1,,9：00～22：00,12月29日～1月3日,,,あり,,http://www.city.fukui.lg.jp/kyoiku/gakusyu/kominkan/kigokorobunkahall.html,140台（無料）,,,,,
4924,福井市きらら館,ふくいしきららかん,"あわら・坂井・福井市,福井市","公共交通機関で行ける,駅から徒歩10分以内,雨でもOK(屋根つき)",36.0264774,136.1448655,17,https://www.fuku-e.com/spot/detail_4924.html,https://www.fuku-e.com/lsc/upfile/spot/0000/4924/4924_1_l.jpg,福井県観光の公式サイト。恐竜や福井ゆかりの幕末偉人から温泉・宿泊情報、おろしそば、ソースカツ丼、越前ガニなどのグルメ情報も掲載。桜、海水浴、花火、紅葉、スキー・スノボなど季節・イベント情報も満載！福井の旅に役立つ情報をたっぷりお届けします！, (0776)98‐3700,福井県福井市風巻町20-17,,9：00～22：00,"月曜、第3日曜、休日、12月29日～1月3日
",,,あり,,,50台（無料）,,,,,
4962,越前市アイシンスポーツアリーナ（越前市武生中央公園総合体育館）,えちぜんしあいしんすぽーつありーな,"丹南,越前市",,35.8999804,136.1555917,15,https://www.fuku-e.com/spot/detail_4962.html,https://www.fuku-e.com/lsc/upfile/spot/0000/4962/4962_1_l.jpg,福井県観光の公式サイト。恐竜や福井ゆかりの幕末偉人から温泉・宿泊情報、おろしそば、ソースカツ丼、越前ガニなどのグルメ情報も掲載。桜、海水浴、花火、紅葉、スキー・スノボなど季節・イベント情報も満載！福井の旅に役立つ情報をたっぷりお届けします！,０７７８－２２－６３９５,福井県越前市高瀬２丁目８－２３,"JR武生駅より徒歩２０～３０分、車で７分
",９：００～２２：００,"毎週月曜日(国民の祝日除く）
国民の祝日の翌日
１２月２９日～１月３日",,,あり,,https://www.city.echizen.lg.jp/office/090/040/sisetu/takefutyuokoensogotaiikukan.html,８００台,,無料,,,
5006,鯖江商工会議所,さばえしょうこうかいぎしょ,"丹南,鯖江市","公共交通機関で行ける,駅から徒歩10分以内",35.94701,136.1834924,15,https://www.fuku-e.com/spot/detail_5006.html,https://www.fuku-e.com/lsc/upfile/spot/0000/5006/5006_1_l.jpg,福井県観光の公式サイト。恐竜や福井ゆかりの幕末偉人から温泉・宿泊情報、おろしそば、ソースカツ丼、越前ガニなどのグルメ情報も掲載。桜、海水浴、花火、紅葉、スキー・スノボなど季節・イベント情報も満載！福井の旅に役立つ情報をたっぷりお届けします！,０７７８－５１－２８００,福井県鯖江市本町３丁目２－１２,"福井鉄道西鯖江駅より徒歩２分
JR鯖江駅より徒歩８分
鯖江Ｉ．Ｃから車で約５分
武生Ｉ．Ｃから車で約１０分","９：００～１９：３０
SCC　１１：００～２０：００（２２時まで延長可）",年末年始,,,あり,,http://www.sabaecci.or.jp,４０台,,無料,,,
5009,南越前文化会館,みなみえちぜんぶんかかいかん,"丹南,南越前町","公共交通機関で行ける,駅から徒歩10分以内",35.8329493,136.2000463,14,https://www.fuku-e.com/spot/detail_5009.html,https://www.fuku-e.com/lsc/upfile/spot/0000/5009/5009_1_l.jpg,福井県観光の公式サイト。恐竜や福井ゆかりの幕末偉人から温泉・宿泊情報、おろしそば、ソースカツ丼、越前ガニなどのグルメ情報も掲載。桜、海水浴、花火、紅葉、スキー・スノボなど季節・イベント情報も満載！福井の旅に役立つ情報をたっぷりお届けします！,０７７８－４７－３８１０,福井県南越前町牧谷２９－１５－１,"・南条SAよりスマートIC利用可能
　上り線より２００ｍ、下り線より５００ｍ
・ＪＲ南条駅より６００ｍ",９：００～１８：００,"毎週月曜、毎月第３日曜
１２月２７日～１月４日",,,あり,,https://www.town.minamiechizen.lg.jp/,２００台,,無料,,,
5011,鯖江市総合体育館,さばえしそうごうたいいくかん,"丹南,鯖江市",駅から徒歩10分以内,35.9440734,136.1976942,15,https://www.fuku-e.com/spot/detail_5011.html,https://www.fuku-e.com/lsc/upfile/spot/0000/5011/5011_1_l.jpg,福井県観光の公式サイト。恐竜や福井ゆかりの幕末偉人から温泉・宿泊情報、おろしそば、ソースカツ丼、越前ガニなどのグルメ情報も掲載。桜、海水浴、花火、紅葉、スキー・スノボなど季節・イベント情報も満載！福井の旅に役立つ情報をたっぷりお届けします！,０７７８－５１－３１７６,福井県鯖江市東鯖江３丁目６－１０,"JR鯖江駅より徒歩１０分
JR鯖江駅よりコミュニティーバス幹線「体育館西」下車　　　
鯖江ICより車で５分
","８：３０～２２：００
日曜・祝日は１７：００まで","毎週月曜（月曜が祝日の場合は翌平日）
年末年始
",,,あり,,http://sc-taikyo.or.jp,３００台,,４時間以内無料,,,
5128,ホワイトザウルス,ほわいとざうるす,"永平寺・奥越,勝山市",恐竜,36.07701257521798,136.50091588497162,15,https://www.fuku-e.com/spot/detail_5128.html,https://www.fuku-e.com/lsc/upfile/spot/0000/5128/5128_1_l.jpg,福井県立恐竜博物館への道中に存在する真っ白な恐竜のオブジェ。フォトジェニックなスポットとして人気。,,福井県勝山市村岡町五本寺,,,,,,あり,,,約10台,,,,,
5253,べり果,べりか,"永平寺・奥越,勝山市",動植物園・水族館・テーマパーク,36.07123292374298,136.47982835769653,17,https://www.fuku-e.com/spot/detail_5253.html,https://www.fuku-e.com/lsc/upfile/spot/0000/5253/5253_1_l.jpg,土づくりから生まれる、濃い深い甘い苺。品種は甘みが強く酸味が穏やかな「かおり野」果実が大きく香りが良いのが特徴です。他の品種に比べて収穫が始まるのが早いので長い期間、いちご狩りが楽しめます。冬でも暖かい全天候型のハウスで、立って摘み取れる…,"0779-64-5152
（電話での予約は行っておりません）",福井県勝山市荒土町新保２１－１,中部縦貫自動車道勝山IC下車後、市内方面へ約1分,10:00~16:00(最終受付１５：３０）,毎週火曜日,"●いちご狩り体験　30分間食べ放題　＊完全予約制
大人（中学生以上）/2000円　小学生/1700円
4歳～小学生未満/1400円　　 3歳以下無料

●自家製ソフトクリーム　400円
",,あり,11台,"https://strawberika.jp/,https://www.instagram.com/berika.strawberry_official/",88台,,勝山市道の駅「恐竜渓谷かつやま」の駐車場,"10名様以上のご予約はお電話でお問い合わせください。
バリアフリー対応です。車いすの方もご一緒にいちご狩りを体験していただけます。
感染症対策のためハウス内ではご飲食以外でのマスク着用、食べ放題終了時は速やかにご体質をお願いいたします。

予約開始や営業日のお知らせはInstagramで行っております。","https://select-type.com/rsv/?id=pNmDrzmjQEc,https://www.jalan.net/kankou/spt_guide000000215289/activity_plan/",
5279,恐竜バス,きょうりゅうばす,"あわら・坂井・福井市,永平寺・奥越,福井市,勝山市",恐竜,36.0614066,136.2240489,17,https://www.fuku-e.com/spot/detail_5279.html,https://www.fuku-e.com/lsc/upfile/spot/0000/5279/5279_1_l.jpg,京福バスでは、福井駅から恐竜博物館へ直通となる恐竜バスを運行しています。恐竜バスには、「恐竜号」と「海竜号」の２台があり、大迫力のトリックアートデザインは写真映え間違えなしです。車内では、探検隊キャプテンにふんした添乗員が出迎え、探検隊ク…,0776-57-7700（平日（８：３０～１７：００））,福井県福井市手寄１丁目１,,,,"おとな（中学生以上）　２，０００円
こども（小学生）　　　１，０００円",,,,https://bus.keifuku.co.jp/topix/20210327_dinosaur/,,,,"・車両故障等で恐竜バスが運行できず、車内コンテンツも提供できない場合がございます。予めご了承ください。
・座席定員制のため、満席の場合はご乗車いただけない場合がございます。
・手荷物はお客様ご自身で取扱いをお願いいたします。
・車内は全席禁煙です。
・定刻出発になりますので、お時間に余裕をもってお越しください。",,
5369,ルポの森（恐竜ホテル）,るぽのもり（きょうりゅうほてる）,"あわら・坂井・福井市,福井市",温泉,36.0108628,136.3293821,13,https://www.fuku-e.com/spot/detail_5369.html,https://www.fuku-e.com/lsc/upfile/spot/0000/5369/5369_1_l.jpg,ルポの森では、天然温泉宿が併設された、ドーム型グランピングを料理人がご提供するお料理の数々とともにお楽しみいただけます。また、施設内には館内宿泊、ビュッフェレストランや食堂もございます。キャンプギアショップや、スイーツの店、エステサロンも…,０７７６ー９６ー７０７１,福井県福井市市波町38-2,福井ICより１３分、JR九頭竜線市波駅より徒歩１３分,,水曜日,,現金、VISA/Mastercard® /JCB/American Express/Discover/Diners/銀聯、その他QR決済,あり,,"https://foret-de-repos.jp/,https://fuku-iro.jp/fukuiromikke/2022drive/,https://bimeguri.jp/spot/4363/",８０,,,,,mailto:info@foret-de-repos.jp
5470,羽二重餅の古里　マエダセイカ株式会社,はぶたえもちのふるさと　まえだせいかかぶしきがいしゃ,"永平寺・奥越,永平寺町",お土産店・商業施設,36.080553,136.2955901,16,https://www.fuku-e.com/spot/detail_5470.html,https://www.fuku-e.com/lsc/upfile/spot/0000/5470/5470_1_l.jpg,福井県永平寺町にある1954年創業の老舗和菓子屋で、大本山永平寺御用達。羽二重餅・羽二重風呂敷・織福の三大銘菓ほか、全部で15種類以上の羽二重餅をそろえた「羽二重餅の百貨店」です。300年以上の歴史のある 福井の銘菓「羽二重餅」は、福井県の名産品で…,0776-61-2100,福井県永平寺町松岡吉野35－21－1,＜車利用＞福井北ICより2分　大本山永平寺より10分　JR福井駅より15分　福井県恐竜博物館より30分,8:00~17:00,年中無休,,,あり,１０台,http://www.maedaseika.co.jp/,乗用車１０台以上,,,,,mailto:mochi@maedaseika.co.jp
5480,勝山自然塾,かつやましぜんじゅく,"永平寺・奥越,勝山市",,36.072689800161065,136.55559539794922,13,https://www.fuku-e.com/spot/detail_5480.html,https://www.fuku-e.com/lsc/upfile/spot/0000/5480/5480_1_l.jpg,【恐竜博物館から車で10分！】46億年の地球に触れる、勝山自然塾日本の恐竜化石の８割が発見されている地球史上重要な福井　勝山。勝山自然塾では、大自然の中で「自然・環境・地形」のフィールドを生かしながら五感を使って楽しく地球の成り立ちや自然環境…,,福井県勝山市170-70,中部縦貫自動車道勝山ICから法恩寺山有料道路経由で車で20分,"午前の部　10:00～12:00
午後の部　13:30～15:30",,"個人
中学生以上　3,000円
小学生　2,000円

団体
1,500円／1名","・現地現金支払い
・現地カード支払い（VISA、Master Card、American Express、JCB、銀聯（ぎんれん）、ダイナースクラブ、UCS、TS3、MUFG）
そのほか、各種QR決済、IC決済が可能",あり,あり,"https://www.skijam.jp/lp/shizenjyuku/,https://www.skijam.jp/green/,https://www.skijam.jp/green/activity/",3400,,,,,
5627,第４４回九頭竜紅葉まつり,だいよんじゅうさんかいくずりゅうこうようまつり,"永平寺・奥越,大野市","自然・公園,山・川・湖,紅葉,恐竜,道の駅・観光案内所等,道の駅",35.8991083,136.6519403,16,https://www.fuku-e.com/spot/detail_5627.html,https://www.fuku-e.com/lsc/upfile/spot/0000/5627/5627_1_l.png,九頭竜湖やイベント会場である国民休養地をはじめとする和泉アリアは、鮮やかに色づいた紅葉が素晴らしい紅葉の名所です。イベントでは、手打ち蕎麦や九頭竜まいたけなど秋の味覚が楽しめる市場が開かれます。■開催日時令和5年10月28日（土）、29日（日）　…,０７７９−６６−１１１１（九頭竜まつり事項委員会（大野市役所慣行交流課内））,福井県大野市角野１４−３,"（１） 東海北陸自動車道「白鳥」ＩＣ → 30分
（２） 北陸自動車道「福井」ＩＣ → 国道158号線経由50ｋｍ75分",９：００～１６：００,,,,あり,,"https://www.city.ono.fukui.jp/kanko/kanko-joho/kanko_event/kuzuryu-koyo-matsuri.html,https://www.ono-kankou.jp/tourism/detail.php?cd=74",,/lsc/upfile/spot/0000/5627/5627_1_file.pdf,,,,mailto:kanko@city.fukui-ono.lg.jp
5680,【道の駅南えちぜん山海里】ウィンターナイトイベント,うぃんたーないといべんと,"丹南,南越前町","道の駅・観光案内所等,道の駅",35.831627269401764,136.20137214660645,15,https://www.fuku-e.com/spot/detail_5680.html,https://www.fuku-e.com/lsc/upfile/spot/0000/5680/5680_1_l.jpg,道の駅「南えちぜん山海里」の屋外公園さんかいりパークでウィンターナイトイベントを開催します。360度のプロジェクションマッピングに光のフィールドイルミネーションが加わり、夜の公園を幻想的に演出。今年のプロジェクションマッピングは、新たに恐竜の…,"0778-47-8003（南越前町建設整備課）
0778-47-3690（道の駅「南えちぜん山海里」）",福井県南越前町牧谷39-2-2,,点灯時間　17:00～21:00,,無料,,あり,,"https://kineno-nanjo.com/info/news/post-860/,https://www.fuku-e.com/fukutabi/detail_138.html",,,,,,
5928,勝山市ジオターミナル,かつやましじおたーみなる,"永平寺・奥越,勝山市","恐竜,道の駅・観光案内所等,観光案内所,お土産店・商業施設",36.08390922906618,136.5070380270481,20,https://www.fuku-e.com/spot/detail_5928.html,https://www.fuku-e.com/lsc/upfile/spot/0000/5928/5928_1_l.jpg,恐竜博物館前駐車場（第1駐車場）に、観光案内所を併設した飲食物販施設「ジオターミナル」がオープンしました！普段手に入れることができない恐竜のお土産や、オリジナルのメニューが楽しめるレストランなど、お客様が楽しめる空間をご提供いたします。恐竜…,0779-87-0023（勝山ツーリストインフォメーションセンター）,福井県勝山市村岡町寺尾51-11,"中部縦貫自動車道勝山ICから車で10分
えちぜん鉄道勝山駅から恐竜博物館直通バス乗車","ジオターミナル　8：30～18：00（無料休憩所、トイレ、観光案内所など）
スーベニアショップ　ラプトル　9：30～17：00
ザウルスキッチン　10：00～16：00",年末年始,,,あり,,"https://katsuyama-navi.jp/geoterminal/,https://store.shopping.yahoo.co.jp/raptors/",,,,,,mailto:info@katsuyama-navi.jp
5929,スーベニアショップラプトル,,"永平寺・奥越,勝山市","恐竜,お土産店・商業施設",36.08392765401665,136.50708228349686,20,https://www.fuku-e.com/spot/detail_5929.html,https://www.fuku-e.com/lsc/upfile/spot/0000/5929/5929_1_l.jpg,"福井県立恐竜博物館前のスーベニアショップラプトルでは、約3,000種類のアイテムが揃う国内有数の恐竜グッズ専門店。ここでしか買えない商品やかわいい恐竜お土産をご覧ください。営業時間9:30～17:00（時期によって変動あり）",0779-87-0086,福井県勝山市村岡町寺尾51-11,,9:30～17:00,恐竜博物館に準ずる,,現金、クレジットカード、QRなど,あり,,"https://katsuyama-navi.jp/geoterminal/,https://store.shopping.yahoo.co.jp/raptors/",,,,,,
6060,東尋坊　正太楼,,"あわら・坂井・福井市,坂井市",お土産店・商業施設,36.2365265,136.128082,16,https://www.fuku-e.com/spot/detail_6060.html,https://www.fuku-e.com/lsc/upfile/spot/0000/6060/6060_1_l.jpg,福井県観光の公式サイト。恐竜や福井ゆかりの幕末偉人から温泉・宿泊情報、おろしそば、ソースカツ丼、越前ガニなどのグルメ情報も掲載。桜、海水浴、花火、紅葉、スキー・スノボなど季節・イベント情報も満載！福井の旅に役立つ情報をたっぷりお届けします！,0776-82-1199,福井県坂井市三国町安島64-1-55,"自動車：金津ICより25分、加賀ICより40分
鉄道・バス：えちぜん鉄道、京福バス",9：00～17：00,不定休,,,あり,大型バス10台,https://tojinbo.com/,普通車20台（無料）,,,,,
6277,古代生物ミュージアム（幻想クラゲ館 Atolla）,こだいせいぶつみゅーじあむ（げんそうくらげかん あとぅーら）,"あわら・坂井・福井市,福井市","恐竜,動植物園・水族館・テーマパーク",36.0836861,136.0292361,16,https://www.fuku-e.com/spot/detail_6277.html,https://www.fuku-e.com/lsc/upfile/spot/0000/6277/6277_1_l.jpg,福井市越前海岸のミュージアムです。北陸最多種展示の事も多いクラゲの展示と化石や剥製の展示です。展示物は古代サメ「ラブカ」「海竜モササウルスの化石」「最大級のイカ化石」など多数。「クラゲ」「化石」等は購入も可能。ここだけでしか購入できないク…,090-9446-8778,福井県福井市福井市鮎川町167-3-6,"JR福井駅から自動車60分
「東尋坊」から自動車30分","土曜日、日曜日、祝日12時～17時
（※季節や天候により営業時間が変更になる場合がございます。）",月曜日～金曜日,3歳以上350円,,あり,,"http://www.atolla.sakura.ne.jp/,https://instagram.com/atolla.fukui?igshid=MjEwN2IyYWYwYw==,https://x.com/atolla_fukui/",,,,,,
